[{"OBJECT_NAME":"STARLINK-5448","OBJECT_ID":"2022-175N","EPOCH":"2026-03-09T06:29:17.314656","MEAN_MOTION":15.08870714,"ECCENTRICITY":0.00017997,"INCLINATION":53.2204,"RA_OF_ASC_NODE":31.1864,"ARG_OF_PERICENTER":93.7584,"MEAN_ANOMALY":266.3614,"EPHEMERIS_TYPE":0,"CLASSIFICATION_TYPE":"U","NORAD_CAT_ID":54770,"ELEMENT_SET_NO":999,"REV_AT_EPOCH":18006,"BSTAR":-0.00060855363,"MEAN_MOTION_DOT":-9.968e-5,"MEAN_MOTION_DDOT":0},{"OBJECT_NAME":"ICEYE-X37","OBJECT_ID":"2024-043E","EPOCH":"2026-03-09T21:28:27.980256","MEAN_MOTION":15.05207146,"ECCENTRICITY":0.00148076,"INCLINATION":97.8149,"RA_OF_ASC_NODE":204.4924,"ARG_OF_PERICENTER":351.2295,"MEAN_ANOMALY":8.867,"EPHEMERIS_TYPE":0,"CLASSIFICATION_TYPE":"U","NORAD_CAT_ID":59102,"ELEMENT_SET_NO":999,"REV_AT_EPOCH":11014,"BSTAR":0.00044484532,"MEAN_MOTION_DOT":6.299e-5,"MEAN_MOTION_DDOT":0}]
